{
    "links": {
        "self": "http://www.neowsapp.com/rest/v1/neo/3511913?api_key=iIulBulltgU6a56xZRHN4H3l9WmuAYTsLGpBGhQ2"
    },
    "id": "3511913",
    "neo_reference_id": "3511913",
    "name": "(2010 EA46)",
    "designation": "2010 EA46",
    "nasa_jpl_url": "http://ssd.jpl.nasa.gov/sbdb.cgi?sstr=3511913",
    "absolute_magnitude_h": 23.7,
    "estimated_diameter": {
        "kilometers": {
            "estimated_diameter_min": 0.0483676488,
            "estimated_diameter_max": 0.1081533507
        },
        "meters": {
            "estimated_diameter_min": 48.3676488219,
            "estimated_diameter_max": 108.1533506775
        },
        "miles": {
            "estimated_diameter_min": 0.0300542543,
            "estimated_diameter_max": 0.0672033557
        },
        "feet": {
            "estimated_diameter_min": 158.6865169607,
            "estimated_diameter_max": 354.8338390368
        }
    },
    "is_potentially_hazardous_asteroid": false,
    "close_approach_data": [
        {
            "close_approach_date": "2010-02-22",
            "close_approach_date_full": "2010-Feb-22 20:51",
            "epoch_date_close_approach": 1266871860000,
            "relative_velocity": {
                "kilometers_per_second": "8.7784077362",
                "kilometers_per_hour": "31602.2678503729",
                "miles_per_hour": "19636.4202651387"
            },
            "miss_distance": {
                "astronomical": "0.0342183636",
                "lunar": "13.3109434404",
                "kilometers": "5118994.309445532",
                "miles": "3180795.5684390616"
            },
            "orbiting_body": "Earth"
        },
        {
            "close_approach_date": "2021-05-07",
            "close_approach_date_full": "2021-May-07 18:57",
            "epoch_date_close_approach": 1620413820000,
            "relative_velocity": {
                "kilometers_per_second": "8.2678752556",
                "kilometers_per_hour": "29764.3509202191",
                "miles_per_hour": "18494.4101592884"
            },
            "miss_distance": {
                "astronomical": "1.1655106254",
                "lunar": "453.3836332806",
                "kilometers": "174357907.022207898",
                "miles": "108340979.5856210724"
            },
            "orbiting_body": "Juptr"
        },
        {
            "close_approach_date": "2081-01-15",
            "close_approach_date_full": "2081-Jan-15 19:44",
            "epoch_date_close_approach": 3504195840000,
            "relative_velocity": {
                "kilometers_per_second": "7.6330400373",
                "kilometers_per_hour": "27478.9441344529",
                "miles_per_hour": "17074.3472595438"
            },
            "miss_distance": {
                "astronomical": "1.0088335644",
                "lunar": "392.4362565516",
                "kilometers": "150919352.418747828",
                "miles": "93776937.0986549064"
            },
            "orbiting_body": "Juptr"
        },
        {
            "close_approach_date": "2163-10-16",
            "close_approach_date_full": "2163-Oct-16 00:53",
            "epoch_date_close_approach": 6115395180000,
            "relative_velocity": {
                "kilometers_per_second": "8.2307180019",
                "kilometers_per_hour": "29630.5848069416",
                "miles_per_hour": "18411.2930985132"
            },
            "miss_distance": {
                "astronomical": "1.127656698",
                "lunar": "438.658455522",
                "kilometers": "168695040.11203326",
                "miles": "104822237.253888588"
            },
            "orbiting_body": "Juptr"
        }
    ],
    "orbital_data": {
        "orbit_id": "13",
        "orbit_determination_date": "2017-04-06 08:58:09",
        "first_observation_date": "2010-03-15",
        "last_observation_date": "2010-04-03",
        "data_arc_in_days": 19,
        "observations_used": 50,
        "orbit_uncertainty": "7",
        "minimum_orbit_intersection": ".0315144",
        "jupiter_tisserand_invariant": "2.962",
        "epoch_osculation": "2459000.5",
        "eccentricity": ".6423643395047484",
        "semi_major_axis": "2.833244836260802",
        "inclination": "5.857216215830421",
        "ascending_node_longitude": "156.9694848668964",
        "orbital_period": "1741.905481204268",
        "perihelion_distance": "1.013269388360893",
        "perihelion_argument": "344.5853941053861",
        "aphelion_distance": "4.653220284160712",
        "perihelion_time": "2458717.524137049885",
        "mean_anomaly": "58.48268563436218",
        "mean_motion": ".2066702263036188",
        "equinox": "J2000",
        "orbit_class": {
            "orbit_class_type": "APO",
            "orbit_class_description": "Near-Earth asteroid orbits which cross the Earth’s orbit similar to that of 1862 Apollo",
            "orbit_class_range": "a (semi-major axis) > 1.0 AU; q (perihelion) < 1.017 AU"
        }
    },
    "is_sentry_object": false
}